NORAD_CAT_ID,OBJECT_NAME,OBJECT_TYPE,EPOCH,MEAN_MOTION,ECCENTRICITY,INCLINATION,RA_OF_ASC_NODE,ARG_OF_PERICENTER,MEAN_ANOMALY,BSTAR,MEAN_MOTION_DOT,MEAN_MOTION_DDOT,TLE_LINE0,TLE_LINE1,TLE_LINE2,SEMIMAJOR_AXIS,PERIOD,APOGEE,PERIGEE,DECAYED
51749.0,STARLINK-3451,PAYLOAD,2022-09-12 14:00:01,15.08841155,0.0001753,53.2161,278.8108,52.4436,263.1805,0.00086191,0.00013456,0.0,0 STARLINK-3451,1 51749U 22016AM  22255.58334491  .00013456  00000-0  86191-3 0  9997,2 51749  53.2161 278.8108 0001753  52.4436 263.1805 15.08841155  1307,6917.877,95.437,540.955,538.529,0.0
51749.0,STARLINK-3451,PAYLOAD,2022-09-12 22:00:00,15.08818779,0.0001601,53.2163,277.3125,58.595,268.6445,0.0015869,0.00025043,0.0,0 STARLINK-3451,1 51749U 22016AM  22255.91667824  .00025043  00000-0  15869-2 0  9991,2 51749  53.2163 277.3125 0001601  58.5950 268.6445 15.08818779  1308,6917.945,95.439,540.918,538.703,0.0
51749.0,STARLINK-3451,PAYLOAD,2022-09-13 08:00:01,15.08836327,0.0001766999999999,53.2164,275.4435,54.0263,17.6802,-0.00057827,-9.479e-05,0.0,0 STARLINK-3451,1 51749U 22016AM  22256.33334491 -.00009479  00000-0 -57827-3 0  9997,2 51749  53.2164 275.4435 0001767  54.0263  17.6802 15.08836327 32440,6917.892,95.438,540.979,538.534,0.0
51749.0,STARLINK-3451,PAYLOAD,2022-09-13 14:00:01,15.08834053,0.0001778,53.2163,274.3191,49.9742,300.4223,0.0012202,0.00019182,0.0,0 STARLINK-3451,1 51749U 22016AM  22256.58334491  .00019182  00000-0  12202-2 0  9991,2 51749  53.2163 274.3191 0001778  49.9742 300.4223 15.08834053  1308,6917.899,95.438,540.994,538.534,0.0
51749.0,STARLINK-3451,PAYLOAD,2022-09-13 22:00:00,15.08829117,0.0001668,53.2167,272.8218,58.3164,303.675,0.00090345,0.00014115,0.0,0 STARLINK-3451,1 51749U 22016AM  22256.91667824  .00014115  00000-0  90345-3 0  9993,2 51749  53.2167 272.8218 0001668  58.3164 303.6750 15.08829117  1300,6917.9140000000025,95.438,540.933,538.625,0.0
51749.0,STARLINK-3451,PAYLOAD,2022-09-14 06:00:00,15.08851137,0.0001729,53.217,271.3278,53.6101,319.9752,-0.0029958,-0.00047666,0.0,0 STARLINK-3451,1 51749U 22016AM  22257.25001157 -.00047666  00000-0 -29958-2 0  9992,2 51749  53.2170 271.3278 0001729  53.6101 319.9752 15.08851137 32573,6917.846,95.437,540.9069999999998,538.515,0.0
51749.0,STARLINK-3451,PAYLOAD,2022-09-14 14:00:01,15.08830372,0.0001758,53.217,269.8318,48.5923,336.579,0.00047578,7.290000000000001e-05,0.0,0 STARLINK-3451,1 51749U 22016AM  22257.58334491  .00007290  00000-0  47578-3 0  9994,2 51749  53.2170 269.8318 0001758  48.5923 336.5790 15.08830372  1309,6917.91,95.438,540.991,538.559,0.0
51749.0,STARLINK-3451,PAYLOAD,2022-09-14 22:00:00,15.08811184,0.000162,53.2174,268.3337,56.1507,340.6153,0.0033619999999999,0.00053583,0.0,0 STARLINK-3451,1 51749U 22016AM  22257.91667824  .00053583  00000-0  33620-2 0  9998,2 51749  53.2174 268.3337 0001620  56.1507 340.6153 15.08811184 32683,6917.968000000003,95.439,540.9540000000002,538.7130000000002,0.0
51749.0,STARLINK-3451,PAYLOAD,2022-09-15 14:00:01,15.08868164,0.0001776,53.2175,265.3425,48.7519,11.1995,-0.002492,-0.00039761,0.0,0 STARLINK-3451,1 51749U 22016AM  22258.58334491 -.00039761  00000-0 -24920-2 0  9990,2 51749  53.2175 265.3425 0001776  48.7519  11.1995 15.08868164  1300,6917.794,95.436,540.888,538.431,0.0
51749.0,STARLINK-3451,PAYLOAD,2022-09-15 16:00:00,15.08875859,0.0001719,53.2176,264.9679,51.2854,101.5675,-0.0043055,-0.00068229,0.0,0 STARLINK-3451,1 51749U 22016AM  22258.66667824 -.00068229  00000-0 -43055-2 0  9999,2 51749  53.2176 264.9679 0001719  51.2854 101.5675 15.08875859  1303,6917.771,95.435,540.825,538.447,0.0
51749.0,STARLINK-3451,PAYLOAD,2022-09-16 05:38:00,15.08844267,0.0001597,53.2187,262.4181,61.595,298.5203,2.5476e-05,1.17e-06,0.0,0 STARLINK-3451,1 51749U 22016AM  22259.23473196  .00000117  00000-0  25476-4 0  9999,2 51749  53.2187 262.4181 0001597  61.5950 298.5203 15.08844267 32870,6917.8669999999975,95.437,540.837,538.628,0.0
51749.0,STARLINK-3451,PAYLOAD,2022-09-16 10:24:10,15.08841991,0.000165,53.2181,261.526,55.4694,304.6453,2.4026e-05,9.4e-07,0.0,0 STARLINK-3451,1 51749U 22016AM  22259.43345362  .00000094  00000-0  24026-4 0  9998,2 51749  53.2181 261.5260 0001650  55.4694 304.6453 15.08841991 31796,6917.874,95.437,540.881,538.5980000000002,0.0
51749.0,STARLINK-3451,PAYLOAD,2022-09-17 03:53:25,15.08831997,0.0001584,53.2188,258.2559,60.3131,299.8019,-3.2126e-05,-7.99e-06,0.0,0 STARLINK-3451,1 51749U 22016AM  22260.16210371 -.00000799  00000-0 -32126-4 0  9995,2 51749  53.2188 258.2559 0001584  60.3131 299.8019 15.08831997 33019,6917.905,95.438,540.866,538.674,0.0
51749.0,STARLINK-3451,PAYLOAD,2022-09-17 10:14:58,15.0883358,0.0001579,53.2184,257.0662,55.6279,304.4862,-5.0898e-05,-1.098e-05,0.0,0 STARLINK-3451,1 51749U 22016AM  22260.42706409 -.00001098  00000-0 -50898-4 0  9995,2 51749  53.2184 257.0662 0001579  55.6279 304.4862 15.08833580 31940,6917.9,95.438,540.857,538.673,0.0
51749.0,STARLINK-3451,PAYLOAD,2022-09-17 16:36:31,15.08827789,0.0001559,53.2186,255.8769,62.6724,297.4426,7.5619e-05,9.15e-06,0.0,0 STARLINK-3451,1 51749U 22016AM  22260.69202568  .00000915  00000-0  75619-4 0  9994,2 51749  53.2186 255.8769 0001559  62.6724 297.4426 15.08827789 31982,6917.918000000002,95.438,540.861,538.7040000000002,0.0
51749.0,STARLINK-3451,PAYLOAD,2022-09-18 03:44:12,15.08836789,0.0001602,53.2185,253.7952,55.5637,304.5506,6.0971e-05,6.82e-06,0.0,0 STARLINK-3451,1 51749U 22016AM  22261.15570088  .00000682  00000-0  60971-4 0  9997,2 51749  53.2185 253.7952 0001602  55.5637 304.5506 15.08836789 33166,6917.89,95.438,540.863,538.6469999999998,0.0
51749.0,STARLINK-3451,PAYLOAD,2022-09-18 11:41:08,15.08840178,0.0001623,53.2184,252.3082,54.8919,305.2226,8.2835e-05,1.031e-05,0.0,0 STARLINK-3451,1 51749U 22016AM  22261.48689876  .00001031  00000-0  82835-4 0  9991,2 51749  53.2184 252.3082 0001623  54.8919 305.2226 15.08840178 32109,6917.88,95.438,540.868,538.622,0.0
51749.0,STARLINK-3451,PAYLOAD,2022-09-19 05:10:22,15.0884117,0.0001581,53.2187,249.0373,51.5081,308.6052,0.00014971,2.096e-05,0.0,0 STARLINK-3451,1 51749U 22016AM  22262.21553632  .00002096  00000-0  14971-3 0  9990,2 51749  53.2187 249.0373 0001581  51.5081 308.6052 15.08841170 33327,6917.877,95.437,540.836,538.648,0.0
51749.0,STARLINK-3451,PAYLOAD,2022-09-19 08:21:09,15.08836178,0.0001635,53.2186,248.4424,50.7002,309.4135,0.00010085,1.317e-05,0.0,0 STARLINK-3451,1 51749U 22016AM  22262.34802118  .00001317  00000-0  10085-3 0  9997,2 51749  53.2186 248.4424 0001635  50.7002 309.4135 15.08836178 32232,6917.892,95.438,540.888,538.626,0.0
51749.0,STARLINK-3451,PAYLOAD,2022-09-19 16:18:04,15.08837907,0.0001576999999999,53.2185,246.9556,52.5883,307.5252,9.7713e-05,1.267e-05,0.0,0 STARLINK-3451,1 51749U 22016AM  22262.67922104  .00001267  00000-0  97713-4 0  9999,2 51749  53.2185 246.9556 0001577  52.5883 307.5252 15.08837907 33390,6917.887,95.438,540.8430000000002,538.661,0.0
51749.0,STARLINK-3451,PAYLOAD,2022-09-20 08:11:55,15.08848361,0.000159,53.2185,243.9817,53.8803,306.2337,0.00010501,1.384e-05,0.0,0 STARLINK-3451,1 51749U 22016AM  22263.34161381  .00001384  00000-0  10501-3 0  9995,2 51749  53.2185 243.9817 0001590  53.8803 306.2337 15.08848361 32382,6917.855,95.437,540.82,538.62,0.0
51749.0,STARLINK-3451,PAYLOAD,2022-09-21 03:16:33,15.08841939,0.0001706999999999,53.2188,240.4142,53.8579,306.2571,3.0502e-05,1.97e-06,0.0,0 STARLINK-3451,1 51749U 22016AM  22264.13649872  .00000197  00000-0  30502-4 0  9994,2 51749  53.2188 240.4142 0001707  53.8579 306.2571 15.08841939 33619,6917.874,95.437,540.92,538.559,0.0
51749.0,STARLINK-3451,PAYLOAD,2022-09-21 08:02:44,15.08777837,0.0002130999999999,53.2188,239.5224,55.8406,304.2788,0.00099249,0.00015516,0.0,0 STARLINK-3451,1 51749U 22016AM  22264.33523853  .00015516  00000-0  99249-3 0  9999,2 51749  53.2188 239.5224 0002131  55.8406 304.2788 15.08777837 33648,6918.07,95.441,541.41,538.461,0.0
51749.0,STARLINK-3451,PAYLOAD,2022-09-21 15:59:39,15.08833009,0.0001659,53.2186,238.0347,47.4546,312.6586,1.8816e-06,-2.58e-06,0.0,0 STARLINK-3451,1 51749U 22016AM  22264.66642543 -.00000258  00000-0  18816-5 0  9994,2 51749  53.2186 238.0347 0001659  47.4546 312.6586 15.08833009 33690,6917.901999999999,95.438,540.914,538.619,0.0
51749.0,STARLINK-3451,PAYLOAD,2022-09-22 07:53:30,15.0884225,0.0001682,53.218,235.0612,37.999,322.112,1.3758e-05,-6.9e-07,0.0,0 STARLINK-3451,1 51749U 22016AM  22265.32882093 -.00000069  00000-0  13758-4 0  9993,2 51749  53.2180 235.0612 0001682  37.9990 322.1120 15.08842250 32685,6917.874,95.437,540.9019999999998,538.575,0.0
51749.0,STARLINK-3451,PAYLOAD,2022-09-23 02:58:08,15.08836668,0.0001616,53.2179,231.4927,45.2994,314.813,3.1324e-05,2.1e-06,0.0,0 STARLINK-3451,1 51749U 22016AM  22266.12370573  .00000210  00000-0  31324-4 0  9993,2 51749  53.2179 231.4927 0001616  45.2994 314.8130 15.08836668 33917,6917.891,95.438,540.874,538.638,0.0
51749.0,STARLINK-3451,PAYLOAD,2022-09-24 04:24:17,15.08846284,0.0001665999999999,53.2186,226.7363,53.3295,306.785,0.00013862,1.919e-05,0.0,0 STARLINK-3451,1 51749U 22016AM  22267.18354128  .00001919  00000-0  13862-3 0  9991,2 51749  53.2186 226.7363 0001666  53.3295 306.7850 15.08846284 34077,6917.861,95.437,540.879,538.5740000000002,0.0
51749.0,STARLINK-3451,PAYLOAD,2022-09-25 05:50:28,15.08838464,0.0001801,53.2176,221.9785,53.2062,306.9095,7.5628e-05,9.16e-06,0.0,0 STARLINK-3451,1 51749U 22016AM  22268.24338737  .00000916  00000-0  75628-4 0  9992,2 51749  53.2176 221.9785 0001801  53.2062 306.9095 15.08838464 34235,6917.885,95.438,540.996,538.504,0.0
51749.0,STARLINK-3451,PAYLOAD,2022-09-25 13:47:23,15.08842214,0.0001771999999999,53.2181,220.4932,53.4871,306.6284,5.1212e-05,5.27e-06,0.0,0 STARLINK-3451,1 51749U 22016AM  22268.57458318  .00000527  00000-0  51212-4 0  9997,2 51749  53.2181 220.4932 0001772  53.4871 306.6284 15.08842214 33173,6917.874,95.437,540.964,538.513,0.0
